SL-14 R/B               
1 21423U 91042B   26014.80374343  .00000273  00000+0  31483-4 0  9997
2 21423  82.4929 270.7220 0018431  60.6341 299.6711 14.81773811845097
ERS-1                   
1 21574U 91050A   26014.96461120  .00000216  00000+0  83836-4 0  9996
2 21574  98.7898  31.8498 0032012   3.6405 356.5009 14.39395698808000
ARIANE 40 R/B           
1 21610U 91050F   26014.72714997  .00000191  00000+0  69861-4 0  9998
2 21610  98.2118  68.9599 0002311 219.6853 140.4169 14.42843863811219
INTERCOSMOS 25          
1 21819U 91086A   26014.41257844  .00000983  00000+0  19471-3 0  9997
2 21819  82.6086 342.8120 1485988 233.9200 111.5174 12.11853461490112
SL-8 R/B                
1 21876U 92008B   26014.83698694  .00000057  00000+0  43826-4 0  9997
2 21876  82.9289 307.8318 0033411 286.0780 127.7190 13.75966192702013
SL-8 R/B                
1 21938U 92020B   26014.94744676  .00000152  00000+0  14096-3 0  9996
2 21938  82.9295 193.6568 0030260  88.0833  21.0160 13.75537717693744
USA 81                  
1 21949U 92023A   26014.93779249  .00000146  00000+0  46639-4 0  9996
2 21949  85.0102 162.4311 0001693 117.7005 242.4360 14.32342120 87098
COSMOS 2219             
1 22219U 92076A   26014.75970707 -.00000053  00000+0 -32773-5 0  9991
2 22219  71.0619 130.8093 0020674 281.5903  78.2899 14.14081333710754
SL-16 R/B               
1 22220U 92076B   26014.97234183  .00000143  00000+0  94953-4 0  9993
2 22220  71.0015 301.5286 0012950 187.5177 245.5778 14.16849544714222
COSMOS 2221             
1 22236U 92080A   26014.93026312  .00001510  00000+0  13238-3 0  9999
2 22236  82.5057 330.5538 0015210  20.0303 340.1513 14.95925995772751
SL-16 R/B               
1 22285U 92093B   26014.60603140  .00000271  00000+0  16307-3 0  9994
2 22285  71.0221 117.8047 0003675 358.5682   1.5429 14.15436611705500
COSMOS 2228             
1 22286U 92094A   26014.91487407  .00001438  00000+0  12253-3 0  9998
2 22286  82.5190 288.7923 0019344 119.6462 240.6690 14.96908587768012
